KOREASAT 116            
1 45920U 20048A   26142.25583841 -.00000370  00000+0  00000+0 0  9994
2 45920   0.0157 291.4930 0000787 154.3928   2.2700  1.00267080 21386
EXPRESS 103             
1 45985U 20053A   26140.32683752 -.00000285  00000+0  00000+0 0  9994
2 45985   0.0148 283.5070 0000517 355.8129 172.8352  1.00271776 21379
EXPRESS 80              
1 45986U 20053B   26142.11176293 -.00000144  00000+0  00000+0 0  9995
2 45986   0.0189 292.2018 0000722 286.8109 140.9769  1.00271677 21360
BSAT-4B                 
1 46112U 20056A   26142.25453841 -.00000358  00000+0  00000+0 0  9999
2 46112   0.0472 130.9415 0003573 333.3124 337.1015  1.00270965 21125
MEV-2                   
1 46113U 20056B   26142.16136006 -.00000019  00000+0  00000+0 0  9995
2 46113   0.0393  64.2251 0000380  98.3724 134.3082  1.00272054 80275
GALAXY 30 (G-30)        
1 46114U 20056C   26142.19984372  .00000029  00000+0  00000+0 0  9996
2 46114   0.0069 318.9743 0002088  96.6293 131.1753  1.00272253 21030
GAOFEN-13 01            
1 46610U 20071A   26142.25609841 -.00000371  00000+0  00000+0 0  9997
2 46610   0.4562  84.9718 0041671 123.3306 242.0174  1.00272686 20666
TIANTONG-1 2            
1 46916U 20082A   26142.25765843 -.00000364  00000+0  00000+0 0  9995
2 46916   0.8250 324.0117 0001541  80.6267  52.9741  1.00270757 20392
LUCAS (JDRS-1)          
1 47202U 20089A   26142.17664082 -.00000243  00000+0  00000+0 0  9991
2 47202   0.0165 288.2299 0002526 120.0061 345.9597  1.00270156 20156
SXM-7                   
1 47240U 20096A   26142.07339125 -.00000213  00000+0  00000+0 0  9994
2 47240   0.0357 108.6233 0003997  21.2653  51.0906  1.00272187  7189
CMS-01                  
1 47256U 20099A   26142.10671815 -.00000172  00000+0  00000+0 0  9997
2 47256   0.0399 115.7125 0004321 176.2646  69.1667  1.00270292 19931
TURKSAT 5A              
1 47306U 21001A   26142.23902500  .00000146  00000+0  00000+0 0  9999
2 47306   0.0222  55.0919 0000077 244.5614  57.1945  1.00272781 19703
TIANTONG-1 3            
1 47321U 21003A   26142.10645815 -.00000164  00000+0  00000+0 0  9998
2 47321   1.7786 337.7619 0003120  84.6168 297.2215  1.00270011 19700
TJS-6                   
1 47613U 21010A   26142.26823179  .00000035  00000+0  00000+0 0  9994
2 47613   0.5350  87.8743 0002156 324.0672 103.0637  1.00268170 19556
SBIRS GEO-5 (USA 315)   
1 48618U 21042A   26142.03751110 -.00000281  00000+0  00000+0 0  9999
2 48618   5.1369 328.9432 0001304  88.1173 289.9193  1.00271134 18515
FENGYUN 4B              
1 48808U 21047A   26142.25358507 -.00000338  00000+0  00000+0 0  9995
2 48808   0.0917  72.4906 0005310 288.4573  74.9760  1.00272422 18317
SXM-8                   
1 48838U 21049A   26142.07339125 -.00000213  00000+0  00000+0 0  9997
2 48838   0.0315  38.6917 0004530 357.2316 145.0559  1.00269925 18322
