[{"OBJECT_NAME":"KOREASAT 116","OBJECT_ID":"2020-048A","EPOCH":"2026-05-22T06:08:24.438624","MEAN_MOTION":1.0026708,"ECCENTRICITY":7.871e-05,"INCLINATION":0.0157,"RA_OF_ASC_NODE":291.493,"ARG_OF_PERICENTER":154.3928,"MEAN_ANOMALY":2.27,"EPHEMERIS_TYPE":0,"CLASSIFICATION_TYPE":"U","NORAD_CAT_ID":45920,"ELEMENT_SET_NO":999,"REV_AT_EPOCH":2138,"BSTAR":0,"MEAN_MOTION_DOT":-3.7e-06,"MEAN_MOTION_DDOT":0},{"OBJECT_NAME":"EXPRESS 103","OBJECT_ID":"2020-053A","EPOCH":"2026-05-20T07:50:38.761728","MEAN_MOTION":1.00271776,"ECCENTRICITY":5.177e-05,"INCLINATION":0.0148,"RA_OF_ASC_NODE":283.507,"ARG_OF_PERICENTER":355.8129,"MEAN_ANOMALY":172.8352,"EPHEMERIS_TYPE":0,"CLASSIFICATION_TYPE":"U","NORAD_CAT_ID":45985,"ELEMENT_SET_NO":999,"REV_AT_EPOCH":2137,"BSTAR":0,"MEAN_MOTION_DOT":-2.85e-06,"MEAN_MOTION_DDOT":0},{"OBJECT_NAME":"EXPRESS 80","OBJECT_ID":"2020-053B","EPOCH":"2026-05-22T02:40:56.317152","MEAN_MOTION":1.00271677,"ECCENTRICITY":7.22e-05,"INCLINATION":0.0189,"RA_OF_ASC_NODE":292.2018,"ARG_OF_PERICENTER":286.8109,"MEAN_ANOMALY":140.9769,"EPHEMERIS_TYPE":0,"CLASSIFICATION_TYPE":"U","NORAD_CAT_ID":45986,"ELEMENT_SET_NO":999,"REV_AT_EPOCH":2136,"BSTAR":0,"MEAN_MOTION_DOT":-1.44e-06,"MEAN_MOTION_DDOT":0},{"OBJECT_NAME":"BSAT-4B","OBJECT_ID":"2020-056A","EPOCH":"2026-05-22T06:06:32.118624","MEAN_MOTION":1.00270965,"ECCENTRICITY":0.0003573,"INCLINATION":0.0472,"RA_OF_ASC_NODE":130.9415,"ARG_OF_PERICENTER":333.3124,"MEAN_ANOMALY":337.1015,"EPHEMERIS_TYPE":0,"CLASSIFICATION_TYPE":"U","NORAD_CAT_ID":46112,"ELEMENT_SET_NO":999,"REV_AT_EPOCH":2112,"BSTAR":0,"MEAN_MOTION_DOT":-3.58e-06,"MEAN_MOTION_DDOT":0},{"OBJECT_NAME":"MEV-2","OBJECT_ID":"2020-056B","EPOCH":"2026-05-22T03:52:21.509184","MEAN_MOTION":1.00272054,"ECCENTRICITY":3.808e-05,"INCLINATION":0.0393,"RA_OF_ASC_NODE":64.2251,"ARG_OF_PERICENTER":98.3724,"MEAN_ANOMALY":134.3082,"EPHEMERIS_TYPE":0,"CLASSIFICATION_TYPE":"U","NORAD_CAT_ID":46113,"ELEMENT_SET_NO":999,"REV_AT_EPOCH":8027,"BSTAR":0,"MEAN_MOTION_DOT":-1.9e-07,"MEAN_MOTION_DDOT":0},{"OBJECT_NAME":"GALAXY 30 (G-30)","OBJECT_ID":"2020-056C","EPOCH":"2026-05-22T04:47:46.497408","MEAN_MOTION":1.00272253,"ECCENTRICITY":0.00020885,"INCLINATION":0.0069,"RA_OF_ASC_NODE":318.9743,"ARG_OF_PERICENTER":96.6293,"MEAN_ANOMALY":131.1753,"EPHEMERIS_TYPE":0,"CLASSIFICATION_TYPE":"U","NORAD_CAT_ID":46114,"ELEMENT_SET_NO":999,"REV_AT_EPOCH":2103,"BSTAR":0,"MEAN_MOTION_DOT":2.9e-07,"MEAN_MOTION_DDOT":0},{"OBJECT_NAME":"GAOFEN-13 01","OBJECT_ID":"2020-071A","EPOCH":"2026-05-22T06:08:46.902624","MEAN_MOTION":1.00272686,"ECCENTRICITY":0.00416718,"INCLINATION":0.4562,"RA_OF_ASC_NODE":84.9718,"ARG_OF_PERICENTER":123.3306,"MEAN_ANOMALY":242.0174,"EPHEMERIS_TYPE":0,"CLASSIFICATION_TYPE":"U","NORAD_CAT_ID":46610,"ELEMENT_SET_NO":999,"REV_AT_EPOCH":2066,"BSTAR":0,"MEAN_MOTION_DOT":-3.71e-06,"MEAN_MOTION_DDOT":0},{"OBJECT_NAME":"TIANTONG-1 2","OBJECT_ID":"2020-082A","EPOCH":"2026-05-22T06:11:01.688352","MEAN_MOTION":1.00270757,"ECCENTRICITY":0.00015418,"INCLINATION":0.825,"RA_OF_ASC_NODE":324.0117,"ARG_OF_PERICENTER":80.6267,"MEAN_ANOMALY":52.9741,"EPHEMERIS_TYPE":0,"CLASSIFICATION_TYPE":"U","NORAD_CAT_ID":46916,"ELEMENT_SET_NO":999,"REV_AT_EPOCH":2039,"BSTAR":0,"MEAN_MOTION_DOT":-3.64e-06,"MEAN_MOTION_DDOT":0},{"OBJECT_NAME":"LUCAS (JDRS-1)","OBJECT_ID":"2020-089A","EPOCH":"2026-05-22T04:14:21.766848","MEAN_MOTION":1.00270156,"ECCENTRICITY":0.00025264,"INCLINATION":0.0165,"RA_OF_ASC_NODE":288.2299,"ARG_OF_PERICENTER":120.0061,"MEAN_ANOMALY":345.9597,"EPHEMERIS_TYPE":0,"CLASSIFICATION_TYPE":"U","NORAD_CAT_ID":47202,"ELEMENT_SET_NO":999,"REV_AT_EPOCH":2015,"BSTAR":0,"MEAN_MOTION_DOT":-2.43e-06,"MEAN_MOTION_DDOT":0},{"OBJECT_NAME":"SXM-7","OBJECT_ID":"2020-096A","EPOCH":"2026-05-22T01:45:41.004000","MEAN_MOTION":1.00272187,"ECCENTRICITY":0.00039972,"INCLINATION":0.0357,"RA_OF_ASC_NODE":108.6233,"ARG_OF_PERICENTER":21.2653,"MEAN_ANOMALY":51.0906,"EPHEMERIS_TYPE":0,"CLASSIFICATION_TYPE":"U","NORAD_CAT_ID":47240,"ELEMENT_SET_NO":999,"REV_AT_EPOCH":718,"BSTAR":0,"MEAN_MOTION_DOT":-2.13e-06,"MEAN_MOTION_DDOT":0},{"OBJECT_NAME":"CMS-01","OBJECT_ID":"2020-099A","EPOCH":"2026-05-22T02:33:40.448160","MEAN_MOTION":1.00270292,"ECCENTRICITY":0.00043215,"INCLINATION":0.0399,"RA_OF_ASC_NODE":115.7125,"ARG_OF_PERICENTER":176.2646,"MEAN_ANOMALY":69.1667,"EPHEMERIS_TYPE":0,"CLASSIFICATION_TYPE":"U","NORAD_CAT_ID":47256,"ELEMENT_SET_NO":999,"REV_AT_EPOCH":1993,"BSTAR":0,"MEAN_MOTION_DOT":-1.72e-06,"MEAN_MOTION_DDOT":0},{"OBJECT_NAME":"TURKSAT 5A","OBJECT_ID":"2021-001A","EPOCH":"2026-05-22T05:44:11.760000","MEAN_MOTION":1.00272781,"ECCENTRICITY":7.7e-06,"INCLINATION":0.0222,"RA_OF_ASC_NODE":55.0919,"ARG_OF_PERICENTER":244.5614,"MEAN_ANOMALY":57.1945,"EPHEMERIS_TYPE":0,"CLASSIFICATION_TYPE":"U","NORAD_CAT_ID":47306,"ELEMENT_SET_NO":999,"REV_AT_EPOCH":1970,"BSTAR":0,"MEAN_MOTION_DOT":1.46e-06,"MEAN_MOTION_DDOT":0},{"OBJECT_NAME":"TIANTONG-1 3","OBJECT_ID":"2021-003A","EPOCH":"2026-05-22T02:33:17.984160","MEAN_MOTION":1.00270011,"ECCENTRICITY":0.00031205,"INCLINATION":1.7786,"RA_OF_ASC_NODE":337.7619,"ARG_OF_PERICENTER":84.6168,"MEAN_ANOMALY":297.2215,"EPHEMERIS_TYPE":0,"CLASSIFICATION_TYPE":"U","NORAD_CAT_ID":47321,"ELEMENT_SET_NO":999,"REV_AT_EPOCH":1970,"BSTAR":0,"MEAN_MOTION_DOT":-1.64e-06,"MEAN_MOTION_DDOT":0},{"OBJECT_NAME":"TJS-6","OBJECT_ID":"2021-010A","EPOCH":"2026-05-22T06:26:15.226656","MEAN_MOTION":1.0026817,"ECCENTRICITY":0.00021561,"INCLINATION":0.535,"RA_OF_ASC_NODE":87.8743,"ARG_OF_PERICENTER":324.0672,"MEAN_ANOMALY":103.0637,"EPHEMERIS_TYPE":0,"CLASSIFICATION_TYPE":"U","NORAD_CAT_ID":47613,"ELEMENT_SET_NO":999,"REV_AT_EPOCH":1955,"BSTAR":0,"MEAN_MOTION_DOT":3.5e-07,"MEAN_MOTION_DDOT":0},{"OBJECT_NAME":"SBIRS GEO-5 (USA 315)","OBJECT_ID":"2021-042A","EPOCH":"2026-05-22T00:54:00.959040","MEAN_MOTION":1.00271134,"ECCENTRICITY":0.0001304,"INCLINATION":5.1369,"RA_OF_ASC_NODE":328.9432,"ARG_OF_PERICENTER":88.1173,"MEAN_ANOMALY":289.9193,"EPHEMERIS_TYPE":0,"CLASSIFICATION_TYPE":"U","NORAD_CAT_ID":48618,"ELEMENT_SET_NO":999,"REV_AT_EPOCH":1851,"BSTAR":0,"MEAN_MOTION_DOT":-2.81e-06,"MEAN_MOTION_DDOT":0},{"OBJECT_NAME":"FENGYUN 4B","OBJECT_ID":"2021-047A","EPOCH":"2026-05-22T06:05:09.750048","MEAN_MOTION":1.00272422,"ECCENTRICITY":0.00053101,"INCLINATION":0.0917,"RA_OF_ASC_NODE":72.4906,"ARG_OF_PERICENTER":288.4573,"MEAN_ANOMALY":74.976,"EPHEMERIS_TYPE":0,"CLASSIFICATION_TYPE":"U","NORAD_CAT_ID":48808,"ELEMENT_SET_NO":999,"REV_AT_EPOCH":1831,"BSTAR":0,"MEAN_MOTION_DOT":-3.38e-06,"MEAN_MOTION_DDOT":0},{"OBJECT_NAME":"SXM-8","OBJECT_ID":"2021-049A","EPOCH":"2026-05-22T01:45:41.004000","MEAN_MOTION":1.00269925,"ECCENTRICITY":0.00045306,"INCLINATION":0.0315,"RA_OF_ASC_NODE":38.6917,"ARG_OF_PERICENTER":357.2316,"MEAN_ANOMALY":145.0559,"EPHEMERIS_TYPE":0,"CLASSIFICATION_TYPE":"U","NORAD_CAT_ID":48838,"ELEMENT_SET_NO":999,"REV_AT_EPOCH":1832,"BSTAR":0,"MEAN_MOTION_DOT":-2.13e-06,"MEAN_MOTION_DDOT":0}]